APRIZESAT 2             
1 28366U 04025A   26195.42102354  .00000095  00000+0  42427-4 0  9996
2 28366  98.1040 359.8628 0105889 167.1957 193.1959 14.38047429155557
SAUDICOMSAT 1           
1 28369U 04025D   26195.58324080  .00000143  00000+0  44155-4 0  9992
2 28369  98.5777 206.4547 0031017 300.8440  58.9706 14.55493311168110
SAUDICOMSAT 2           
1 28370U 04025E   26195.58967387  .00000093  00000+0  36161-4 0  9999
2 28370  98.6643 208.6106 0055615 175.5115 184.6588 14.49994203164071
APRIZESAT 1             
1 28372U 04025G   26195.58740129  .00000118  00000+0  40986-4 0  9992
2 28372  98.6309 207.0590 0045788  72.4739 288.1451 14.51791835165887
NANOSAT-1               
1 28493U 04049B   26195.34425573  .00000482  00000+0  70763-4 0  9999
2 28493  98.2308 332.6749 0003733 186.6399 173.4763 14.80209899159466
SAUDICOMSAT 7           
1 31119U 07012C   26195.82144194  .00000236  00000+0  51426-4 0  9993
2 31119  98.3797 170.5215 0056963 109.4379 251.2991 14.66136406 26489
SAUDICOMSAT 6           
1 31121U 07012E   26195.86595205  .00000163  00000+0  41322-4 0  9996
2 31121  98.4117 163.9008 0070517 240.1526 119.2654 14.62584351 24235
SAUDICOMSAT 5           
1 31124U 07012H   26195.82431058  .00000299  00000+0  60261-4 0  9993
2 31124  98.3510 171.2658 0048274  39.9687 320.5054 14.68191818 27652
SAUDICOMSAT 3           
1 31125U 07012J   26195.73684611  .00000367  00000+0  68389-4 0  9994
2 31125  98.3164 171.7231 0038309 326.7103  33.1694 14.70749358 28871
SAUDICOMSAT 4           
1 31127U 07012L   26195.82522450  .00000194  00000+0  45393-4 0  9996
2 31127  98.4003 168.9623 0063531 170.8864 189.3507 14.64535196 25337
APRIZESAT 4             
1 35684U 09041D   26195.76890347  .00000319  00000+0  44861-4 0  9996
2 35684  98.1404 271.6382 0042209 230.9211 128.8245 14.83913443915452
APRIZESAT 3             
1 35686U 09041F   26195.45006053  .00000971  00000+0  88768-4 0  9995
2 35686  98.2098 349.9859 0060857 338.4003  21.4651 14.96309686920451
S-NET D                 
1 43186U 18014G   26195.70752161  .00002523  00000+0  13144-3 0  9995
2 43186  97.5336 100.3276 0006264 287.1743  72.8804 15.16915277462933
S-NET B                 
1 43187U 18014H   26195.71951559  .00002461  00000+0  12839-3 0  9990
2 43187  97.5340 100.3268 0006858 280.6944  79.3517 15.16885110462935
S-NET A                 
1 43188U 18014J   26195.70624733  .00002488  00000+0  12958-3 0  9992
2 43188  97.5351 100.5279 0006741 281.8127  78.2349 15.16923371462932
S-NET C                 
1 43189U 18014K   26195.72353909  .00002400  00000+0  12529-3 0  9997
2 43189  97.5370 100.6239 0008125 272.3124  87.7179 15.16876096461487
SALSAT                  
1 46495U 20068K   26195.54877328  .00004163  00000+0  14541-3 0  9992
2 46495  97.8856 200.2874 0009148 195.2534 164.8431 15.30166467319545
OOV-CUBE (TUBSAT-30)    
1 60240U 24128F   26195.40209776  .00001023  00000+0  90398-4 0  9995
2 60240  61.9937 130.6682 0041218 139.8475 220.5674 15.02871955110201
LPNTSAT-001 (IOD-1)     
1 68408U 26065A   26195.61955926  .00001398  00000+0  70560-4 0  9993
2 68408  97.3982  75.5460 0014624 268.7074  91.2485 15.18667253 16420
CHUANG XIN 26 (CX-26)   
1 69972U 26158A   26194.51442212 -.00000212  00000+0 -21871-4 0  9997
2 69972  49.9860 287.5119 0004887 294.2352  65.8050 14.25122238   462
